[{"OBJECT_NAME":"OBJECT J","OBJECT_ID":"2023-085J","EPOCH":"2026-03-09T22:47:59.920512","MEAN_MOTION":15.31507187,"ECCENTRICITY":0.00067028,"INCLINATION":97.4828,"RA_OF_ASC_NODE":180.1819,"ARG_OF_PERICENTER":41.7877,"MEAN_ANOMALY":318.3875,"EPHEMERIS_TYPE":0,"CLASSIFICATION_TYPE":"U","NORAD_CAT_ID":57012,"ELEMENT_SET_NO":999,"REV_AT_EPOCH":15156,"BSTAR":0.00064525349,"MEAN_MOTION_DOT":0.00019595,"MEAN_MOTION_DDOT":0},{"OBJECT_NAME":"STARLINK-35264","OBJECT_ID":"2025-224U","EPOCH":"2026-03-09T06:22:11.199360","MEAN_MOTION":15.30192029,"ECCENTRICITY":0.00012438,"INCLINATION":53.1603,"RA_OF_ASC_NODE":13.0061,"ARG_OF_PERICENTER":64.3975,"MEAN_ANOMALY":295.7154,"EPHEMERIS_TYPE":0,"CLASSIFICATION_TYPE":"U","NORAD_CAT_ID":65900,"ELEMENT_SET_NO":999,"REV_AT_EPOCH":2480,"BSTAR":0.001342141,"MEAN_MOTION_DOT":0.00039593,"MEAN_MOTION_DDOT":0}]
